[{"OBJECT_NAME":"STARLINK-30853","OBJECT_ID":"2023-171G","EPOCH":"2026-03-09T22:00:01.999584","MEAN_MOTION":15.26705896,"ECCENTRICITY":0.00015437,"INCLINATION":42.9997,"RA_OF_ASC_NODE":283.9027,"ARG_OF_PERICENTER":283.8467,"MEAN_ANOMALY":298.2086,"EPHEMERIS_TYPE":0,"CLASSIFICATION_TYPE":"U","NORAD_CAT_ID":58236,"ELEMENT_SET_NO":999,"REV_AT_EPOCH":578,"BSTAR":0.0012273819,"MEAN_MOTION_DOT":0.00032776,"MEAN_MOTION_DDOT":0},{"OBJECT_NAME":"TITAN 3C TRANSTAGE DEB","OBJECT_ID":"1965-082PT","EPOCH":"2026-03-09T13:23:41.116128","MEAN_MOTION":15.28908269,"ECCENTRICITY":0.00104371,"INCLINATION":32.0266,"RA_OF_ASC_NODE":255.1391,"ARG_OF_PERICENTER":172.8339,"MEAN_ANOMALY":187.2474,"EPHEMERIS_TYPE":0,"CLASSIFICATION_TYPE":"U","NORAD_CAT_ID":3462,"ELEMENT_SET_NO":999,"REV_AT_EPOCH":24824,"BSTAR":0.0004444037,"MEAN_MOTION_DOT":0.00012939,"MEAN_MOTION_DDOT":0}]
